GLOBALSTAR M067 [+]     
1 32263U 07048A   23339.10858240 -.00000066  00000+0  23451-3 0  9993
2 32263  51.9720 234.7149 0000344 122.5433  24.9380 12.40635083739965
GLOBALSTAR M070 [+]     
1 32264U 07048B   23339.57609811 -.00000084  00000+0  11264-3 0  9992
2 32264  51.9771  33.2512 0000074  61.6000  85.7356 12.62282759742998
GLOBALSTAR M066 [+]     
1 32265U 07048C   23339.22093007 -.00000070  00000+0  18947-3 0  9999
2 32265  51.9679 256.3762 0001496  67.1110  96.9987 12.62277540745217
GLOBALSTAR M079 [+]     
1 37188U 10054A   23339.51409778 -.00000092  00000+0  66994-4 0  9997
2 37188  52.0055  43.5199 0000628 125.0116 340.3643 12.62270390605779
GLOBALSTAR M074 [+]     
1 37189U 10054B   23339.37642705 -.00000099  00000+0  28447-4 0  9999
2 37189  52.0038  43.3477 0000434 118.1787 321.8797 12.62263013606364
GLOBALSTAR M076 [+]     
1 37190U 10054C   23339.23492372 -.00000089  00000+0  84881-4 0  9992
2 37190  52.0084  43.9026 0000652 166.7382 228.4610 12.62264336606067
GLOBALSTAR M077 [+]     
1 37191U 10054D   23339.48807321 -.00000091  00000+0  73087-4 0  9993
2 37191  52.0095 359.8269 0000192  71.1946  94.3656 12.62267137606468
